INTELSAT 23 (IS-23)     
1 38867U 12057A   21216.85425597 -.00000281  00000-0  00000-0 0  9996
2 38867   0.0680 260.9005 0001714 249.2742  57.9593  1.00271515 32110
BEIDOU 16               
1 38953U 12059A   21217.60192354 -.00000174  00000-0  00000+0 0  9990
2 38953   1.2138  83.9012 0010919 297.6174 233.5655  1.00275397 32237
LUCH 5B                 
1 38977U 12061A   21217.43575454 -.00000135  00000-0  00000+0 0  9993
2 38977   6.6127  64.8949 0004691  60.4504 329.3858  1.00271363 32362
YAMAL 300K              
1 38978U 12061B   21217.40373895  .00000074  00000-0  00000+0 0  9997
2 38978   0.0159  38.4764 0000314 195.1893  48.7973  1.00269445 32057
STAR ONE C3             
1 38991U 12062A   21216.84989418 -.00000245  00000-0  00000-0 0  9996
2 38991   0.0236  77.5688 0002022  70.9093  36.1259  1.00269648 31947
EUTELSAT 21B            
1 38992U 12062B   21216.94771693  .00000133  00000-0  00000-0 0  9997
2 38992   0.0652  12.7333 0002913 118.2812 185.4555  1.00271176 32017
HUANJING 1C (HJ-1C)     
1 38997U 12064A   21217.52784595  .00003511  00000-0  76682-4 0  9990
2 38997  97.1169 245.4910 0007377 305.9755 186.3046 15.44831474489655
FENGNIAO 1 (FN-1)       
1 38998U 12064B   21217.36628705  .00002103  00000-0  47012-4 0  9994
2 38998  97.1836 250.4576 0005363   1.7990 358.3278 15.44626624488696
ECHOSTAR 16             
1 39008U 16039B   21217.42676924 -.00000279  00000-0  00000+0 0  9990
2 39008   0.0145  98.2786 0002041  34.0403 274.0022  1.00271660 31995
YAOGAN 16A              
1 39011U 12066A   21216.92917529 -.00000035  00000-0  74005-4 0  9994
2 39011  63.3658 192.1641 0284539  14.4346 346.4595 13.45208681427056
YAOGAN 16B              
1 39012U 12066B   21216.93040811 -.00000021  00000-0  92636-4 0  9992
2 39012  63.3671 192.2802 0284394  14.2486 346.6350 13.45204712427067
YAOGAN 16C              
1 39013U 12066C   21216.92823674 -.00000034  00000-0  75040-4 0  9992
2 39013  63.3678 191.6396 0284445  13.9351 346.9320 13.45210896427082
CHINASAT 12 (ZX 12)     
1 39017U 12067A   21216.88546194 -.00000204  00000-0  00000-0 0  9990
2 39017   0.0177 107.9649 0002752  33.5303 218.4221  1.00272604 31686
PLEIADES 1B             
1 39019U 12068A   21217.43603264 -.00000007  00000-0  83542-5 0  9995
2 39019  98.1936 292.0959 0001217  90.5498 269.5840 14.58551661461863
EUTELSAT 70B            
1 39020U 12069A   21216.87885649 -.00000040  00000-0  00000-0 0  9994
2 39020   0.0674 338.3131 0004898 194.7716 167.4356  1.00270844 31685
YAMAL 402               
1 39022U 12070A   21217.24910755  .00000089  00000-0  00000+0 0  9998
2 39022   0.0226 107.8183 0002259  39.1840 311.5881  1.00271620 31784
GOKTURK 2               
1 39030U 12073A   21217.40138395  .00000014  00000-0  97148-5 0  9993
2 39030  97.8981 100.9610 0000073  52.2292 307.8916 14.72826347462839
SKYNET 5D               
1 39034U 12075A   21217.32410465  .00000102  00000-0  00000+0 0  9994
2 39034   0.0723 358.8298 0003124 150.4009 334.2912  1.00270392 31704
MEXSAT 3                
1 39035U 12075B   21217.40151376 -.00000023  00000-0  00000+0 0  9990
2 39035   0.0152  80.6471 0001803  78.2585 184.9929  1.00272010 31664
COSMOS 2482             
1 39057U 13001A   21217.48252256 -.00000006  00000-0 -10948-3 0  9999
2 39057  82.4963 245.6245 0026144 302.6909  57.1656 12.42915754388067
COSMOS 2483             
1 39058U 13001B   21216.86951435 -.00000003  00000-0 -93738-4 0  9992
2 39058  82.4973 242.5307 0015086 301.0627  58.8973 12.43963282388304
COSMOS 2484             
1 39059U 13001C   21216.87050865 -.00000011  00000-0 -15297-3 0  9993
2 39059  82.5006 246.9248 0025163 313.5814  46.3181 12.42880370387978
TDRS 11                 
1 39070U 13004A   21216.83009163  .00000089  00000-0  00000-0 0  9996
2 39070   3.2705 338.3876 0005289  84.4781  15.2134  1.00276098 28876
GLOBALSTAR M097         
1 39072U 13005A   21217.35230135 -.00000097  00000-0  35540-4 0  9993
2 39072  52.0034 252.2100 0000512  77.5554 282.5370 12.62268166392595
GLOBALSTAR M093         
1 39073U 13005B   21217.40517831 -.00000077  00000-0  15081-3 0  9996
2 39073  51.9787 247.6154 0000455  67.9088 292.1826 12.62266414392594
GLOBALSTAR M094         
1 39074U 13005C   21216.53400143 -.00000116  00000-0 -66674-4 0  9997
2 39074  51.9946 163.2365 0000482  39.2243 320.8658 12.62268368393979
GLOBALSTAR M096         
1 39075U 13005D   21217.41816978 -.00000094  00000-0  55504-4 0  9997
2 39075  52.0048 207.9544 0000368  48.8913 311.1986 12.62268928393354
GLOBALSTAR M078         
1 39076U 13005E   21216.52071119 -.00000133  00000-0 -16404-3 0  9999
2 39076  51.9882 297.1204 0000255 301.5914  58.4928 12.62263447391534
GLOBALSTAR M095         
1 39077U 13005F   21217.41818091 -.00000084  00000-0  11227-3 0  9999
2 39077  51.9802 292.2867 0000256  39.1648 320.9237 12.62263963391844
AMAZONAS 3              
1 39078U 13006A   21217.42685647 -.00000280  00000-0  00000+0 0  9992
2 39078   0.0541 248.8897 0003450 289.4513 228.5226  1.00271818 31154
AZERSPACE 1             
1 39079U 13006B   21217.44822928  .00000136  00000-0  00000+0 0  9999
2 39079   0.0092  38.2822 0001395 123.5533 359.7015  1.00272535 31117
LANDSAT 8               
1 39084U 13008A   21217.47599698  .00000038  00000-0  18572-4 0  9994
2 39084  98.2224 287.3473 0001487  87.5380 272.5989 14.57104725450982
SARAL                   
1 39086U 13009A   21216.87974331  .00000001  00000-0  16469-4 0  9994
2 39086  98.5469  42.2009 0002060 100.8917 259.2499 14.32057650441170
SAPPHIRE                
1 39088U 13009C   21216.97543972 -.00000010  00000-0  11854-4 0  9994
2 39088  98.4446  55.3814 0012220 133.3296 226.8909 14.34248711441779
NEOSSAT                 
1 39089U 13009D   21217.44227004  .00000038  00000-0  28534-4 0  9995
2 39089  98.4404  56.3519 0012186 133.1326 227.0880 14.34575655441917
STRAND-1                
1 39090U 13009E   21217.20919298  .00000006  00000-0  16919-4 0  9993
2 39090  98.4251  58.2526 0010076 128.3353 231.8740 14.35171153442050
SBIRS GEO-2 (USA 241)   
1 39120U 13011A   21216.94771693  .00000125  00000-0  00000-0 0  9997
2 39120   1.8709   3.8470 0002344 127.0567 184.6969  1.00272446 30715
EUTELSAT 117 WEST A     
1 39122U 13012A   21217.18313097 -.00000010  00000-0  00000+0 0  9990
2 39122   0.0132  18.2118 0002680 119.1513 125.7121  1.00271233 30644
ANIK G1                 
1 39127U 13014A   21217.46949990 -.00000071  00000-0  00000+0 0  9992
2 39127   0.0369 243.6977 0002625 268.2643 223.9860  1.00271592 30433
SOMP                    
1 39134U 13015E   21216.78242983  .00002360  00000-0  10896-3 0  9993
2 39134  64.8642  15.2693 0013301 319.8191  40.1953 15.22838824458572
BEESAT-3                
1 39135U 13015F   21217.41131317  .00001369  00000-0  73360-4 0  9997
2 39135  64.8665  43.2266 0009449 338.3294  21.7431 15.19577728458477
BEESAT-2                
1 39136U 13015G   21216.90345892  .00001386  00000-0  75362-4 0  9999
2 39136  64.8750  51.4651 0021596 242.2537 117.6400 15.18915237457821
GAOFEN 1                
1 39150U 13018A   21217.44079949  .00000056  00000-0  15135-4 0  9990
2 39150  97.8287 288.7310 0018012 216.9101 143.0876 14.76570748446105
NEE-01 PEGASO           
1 39151U 13018B   21217.22648852  .00000175  00000-0  29941-4 0  9994
2 39151  97.9820 319.4052 0016651 195.4134 164.6573 14.80380673446899
COSMOS 2485 [GLONASS-M] 
1 39155U 13019A   21216.62751906 -.00000026  00000-0  00000-0 0  9994
2 39155  64.7450 133.5212 0021627 234.8613 333.1265  2.13102032 64404
CHINASAT 11 (ZX 11)     
1 39157U 13020A   21217.56507757 -.00000287  00000-0  00000+0 0  9993
2 39157   0.0390 260.2302 0001019 194.4732 160.9689  1.00268135 30339
PROBA-V                 
1 39159U 13021A   21217.37751605 -.00000018  00000-0  10317-4 0  9997
2 39159  98.4044 263.4420 0003120 304.2705  55.8179 14.23004967428371
VNREDSAT 1              
1 39160U 13021B   21217.45272198  .00000057  00000-0  20197-4 0  9992
2 39160  98.1118 293.8610 0001337  88.1251 272.0106 14.62972492440414
ESTCUBE 1               
1 39161U 13021C   21217.47809035  .00000158  00000-0  32567-4 0  9997
2 39161  97.9364 297.5405 0009670   2.4194 357.7048 14.72509253442961
EUTELSAT 7B             
1 39163U 13022A   21217.05917542  .00000051  00000-0  00000+0 0  9991
2 39163   0.0743 340.4153 0002511  64.7456 296.9670  1.00270831 30159
NAVSTAR 68 (USA 242)    
1 39166U 13023A   21216.25092277 -.00000092  00000-0  00000-0 0  9992
2 39166  55.8869 340.4533 0093175  35.3800 325.2406  2.00562351 60220
WGS F5 (USA 243)        
1 39168U 13024A   21217.17896403 -.00000281  00000-0  00000+0 0  9999
2 39168   0.0158  94.8817 0000555 151.2290  79.7425  1.00271360 30002
SES-6                   
1 39172U 13026A   21217.16215428 -.00000258  00000-0  00000+0 0  9991
2 39172   0.0639 280.0031 0002533 226.1387 185.6508  1.00272883 29902
COSMOS 2486             
1 39177U 13028A   21217.56248923  .00000010  00000-0  12128-4 0  9992
2 39177  97.9409 246.9342 0011844 147.5825 212.6096 14.54744987432971
RESURS P1               
1 39186U 13030A   21217.49955594  .00001212  00000-0  38380-4 0  9999
2 39186  97.1738 278.1911 0018059  60.4437  53.6210 15.34505166453959
O3B FM5                 
1 39188U 13031A   21216.62621662 -.00000022  00000-0  00000-0 0  9995
2 39188   0.0564 350.1044 0002139 142.2316 227.6811  5.00116092148113
O3B FM4                 
1 39189U 13031B   21216.69195948 -.00000022  00000-0  00000-0 0  9996
2 39189   0.0384  16.9323 0004576 104.2238 238.8878  5.00116204148133
O3B FM2                 
1 39190U 13031C   21216.74437700 -.00000022  00000-0  00000-0 0  9999
2 39190   0.0355  23.6652 0007687  93.4430 242.9693  5.00115883148180
O3B PFM                 
1 39191U 13031D   21216.79791951 -.00000022  00000-0  00000-0 0  9996
2 39191   0.0506 357.7280 0002542 124.5532 237.7424  5.00115941147976
